TRANSPORTER-15CZ        
1 66761U 25276CZ  25363.53476111  .00016466  00000+0  79700-3 0  9993
2 66761  97.4396  75.0444 0001914 116.1279 244.0153 15.18646577  4678
HYDROGNSS-1             
1 66762U 25276DA  25363.42403484  .00006320  00000+0  31986-3 0  9997
2 66762  97.4405  74.8910 0001339 212.4352 147.6799 15.17359885  4652
HYDROGNSS-2             
1 66763U 25276DB  25363.55334396  .00006659  00000+0  33559-3 0  9990
2 66763  97.4409  75.0283 0001934 203.1318 156.9829 15.17490561  4679
TRANSPORTER-15DC        
1 66764U 25276DC  25363.48190211  .00010998  00000+0  54776-3 0  9994
2 66764  97.4404  74.9643 0002656 172.5873 187.5401 15.17745823  4669
TRANSPORTER-15DD        
1 66765U 25276DD  25363.46435107  .00020717  00000+0  99308-3 0  9999
2 66765  97.4419  74.9946 0002144 108.9119 251.2348 15.18934660  4669
TRANSPORTER-15DE        
1 66766U 25276DE  25363.40278364  .00017630  00000+0  85609-3 0  9993
2 66766  97.4361  74.9012 0001951  81.7530 278.3925 15.18520852  4654
TRANSPORTER-15DF        
1 66767U 25276DF  25363.53582177  .00006615  00000+0  32482-3 0  9990
2 66767  97.4367  75.0324 0002013  83.5661 276.5803 15.18400043  4670
TRANSPORTER-15DG        
1 66768U 25276DG  25363.40098351  .00016562  00000+0  80159-3 0  9999
2 66768  97.4353  74.9020 0002138  70.8215 289.3251 15.18647218  4653
TRANSPORTER-15DH        
1 66769U 25276DH  25363.46832369  .00009100  00000+0  44422-3 0  9994
2 66769  97.4416  74.9879 0002816  95.9769 264.1786 15.18499411  4666
TRANSPORTER-15DJ        
1 66770U 25276DJ  25363.46815416  .00009825  00000+0  48013-3 0  9994
2 66770  97.4449  75.0004 0003527 110.1013 250.0601 15.18438506  4666
TRANSPORTER-15DK        
1 66771U 25276DK  25363.00603310  .00014774  00000+0  71728-3 0  9991
2 66771  97.4439  74.5447 0003158 102.7859 257.3728 15.18562776  4595
TRANSPORTER-15DL        
1 66772U 25276DL  25363.46396892  .00017636  00000+0  84910-3 0  9993
2 66772  97.4432  74.9992 0003015  90.0471 270.1109 15.18816056  4666
