CCSDS_OMM_VERS = 2.0
CREATION_DATE  = 
ORIGINATOR     = 

OBJECT_NAME    = TRANSPORTER-15CZ
OBJECT_ID      = 2025-276CZ
CENTER_NAME    = EARTH
REF_FRAME      = TEME
TIME_SYSTEM    = UTC
MEAN_ELEMENT_THEORY = SGP/SGP4

EPOCH          = 2025-12-29T12:50:03.359904
MEAN_MOTION    = 15.18646577
ECCENTRICITY   = .00019149
INCLINATION    = 97.4396
RA_OF_ASC_NODE = 75.0444
ARG_OF_PERICENTER = 116.1279
MEAN_ANOMALY   = 244.0153

EPHEMERIS_TYPE = 0
CLASSIFICATION_TYPE = U
NORAD_CAT_ID   = 66761
ELEMENT_SET_NO = 999
REV_AT_EPOCH   = 467
BSTAR          = .7969991E-3
MEAN_MOTION_DOT = .16466E-3
MEAN_MOTION_DDOT = 0

CCSDS_OMM_VERS = 2.0
CREATION_DATE  = 
ORIGINATOR     = 

OBJECT_NAME    = HYDROGNSS-1
OBJECT_ID      = 2025-276DA
CENTER_NAME    = EARTH
REF_FRAME      = TEME
TIME_SYSTEM    = UTC
MEAN_ELEMENT_THEORY = SGP/SGP4

EPOCH          = 2025-12-29T10:10:36.610176
MEAN_MOTION    = 15.17359885
ECCENTRICITY   = .00013392
INCLINATION    = 97.4405
RA_OF_ASC_NODE = 74.8910
ARG_OF_PERICENTER = 212.4352
MEAN_ANOMALY   = 147.6799

EPHEMERIS_TYPE = 0
CLASSIFICATION_TYPE = U
NORAD_CAT_ID   = 66762
ELEMENT_SET_NO = 999
REV_AT_EPOCH   = 465
BSTAR          = .31985987E-3
MEAN_MOTION_DOT = .632E-4
MEAN_MOTION_DDOT = 0

CCSDS_OMM_VERS = 2.0
CREATION_DATE  = 
ORIGINATOR     = 

OBJECT_NAME    = HYDROGNSS-2
OBJECT_ID      = 2025-276DB
CENTER_NAME    = EARTH
REF_FRAME      = TEME
TIME_SYSTEM    = UTC
MEAN_ELEMENT_THEORY = SGP/SGP4

EPOCH          = 2025-12-29T13:16:48.918144
MEAN_MOTION    = 15.17490561
ECCENTRICITY   = .00019341
INCLINATION    = 97.4409
RA_OF_ASC_NODE = 75.0283
ARG_OF_PERICENTER = 203.1318
MEAN_ANOMALY   = 156.9829

EPHEMERIS_TYPE = 0
CLASSIFICATION_TYPE = U
NORAD_CAT_ID   = 66763
ELEMENT_SET_NO = 999
REV_AT_EPOCH   = 467
BSTAR          = .33559291E-3
MEAN_MOTION_DOT = .6659E-4
MEAN_MOTION_DDOT = 0

CCSDS_OMM_VERS = 2.0
CREATION_DATE  = 
ORIGINATOR     = 

OBJECT_NAME    = TRANSPORTER-15DC
OBJECT_ID      = 2025-276DC
CENTER_NAME    = EARTH
REF_FRAME      = TEME
TIME_SYSTEM    = UTC
MEAN_ELEMENT_THEORY = SGP/SGP4

EPOCH          = 2025-12-29T11:33:56.342304
MEAN_MOTION    = 15.17745823
ECCENTRICITY   = .00026562
INCLINATION    = 97.4404
RA_OF_ASC_NODE = 74.9643
ARG_OF_PERICENTER = 172.5873
MEAN_ANOMALY   = 187.5401

EPHEMERIS_TYPE = 0
CLASSIFICATION_TYPE = U
NORAD_CAT_ID   = 66764
ELEMENT_SET_NO = 999
REV_AT_EPOCH   = 466
BSTAR          = .54775518E-3
MEAN_MOTION_DOT = .10998E-3
MEAN_MOTION_DDOT = 0

CCSDS_OMM_VERS = 2.0
CREATION_DATE  = 
ORIGINATOR     = 

OBJECT_NAME    = TRANSPORTER-15DD
OBJECT_ID      = 2025-276DD
CENTER_NAME    = EARTH
REF_FRAME      = TEME
TIME_SYSTEM    = UTC
MEAN_ELEMENT_THEORY = SGP/SGP4

EPOCH          = 2025-12-29T11:08:39.932448
MEAN_MOTION    = 15.18934660
ECCENTRICITY   = .00021446
INCLINATION    = 97.4419
RA_OF_ASC_NODE = 74.9946
ARG_OF_PERICENTER = 108.9119
MEAN_ANOMALY   = 251.2348

EPHEMERIS_TYPE = 0
CLASSIFICATION_TYPE = U
NORAD_CAT_ID   = 66765
ELEMENT_SET_NO = 999
REV_AT_EPOCH   = 466
BSTAR          = .99308497E-3
MEAN_MOTION_DOT = .20717E-3
MEAN_MOTION_DDOT = 0

CCSDS_OMM_VERS = 2.0
CREATION_DATE  = 
ORIGINATOR     = 

OBJECT_NAME    = TRANSPORTER-15DE
OBJECT_ID      = 2025-276DE
CENTER_NAME    = EARTH
REF_FRAME      = TEME
TIME_SYSTEM    = UTC
MEAN_ELEMENT_THEORY = SGP/SGP4

EPOCH          = 2025-12-29T09:40:00.506496
MEAN_MOTION    = 15.18520852
ECCENTRICITY   = .00019512
INCLINATION    = 97.4361
RA_OF_ASC_NODE = 74.9012
ARG_OF_PERICENTER = 81.7530
MEAN_ANOMALY   = 278.3925

EPHEMERIS_TYPE = 0
CLASSIFICATION_TYPE = U
NORAD_CAT_ID   = 66766
ELEMENT_SET_NO = 999
REV_AT_EPOCH   = 465
BSTAR          = .85609417E-3
MEAN_MOTION_DOT = .1763E-3
MEAN_MOTION_DDOT = 0

CCSDS_OMM_VERS = 2.0
CREATION_DATE  = 
ORIGINATOR     = 

OBJECT_NAME    = TRANSPORTER-15DF
OBJECT_ID      = 2025-276DF
CENTER_NAME    = EARTH
REF_FRAME      = TEME
TIME_SYSTEM    = UTC
MEAN_ELEMENT_THEORY = SGP/SGP4

EPOCH          = 2025-12-29T12:51:35.000928
MEAN_MOTION    = 15.18400043
ECCENTRICITY   = .00020136
INCLINATION    = 97.4367
RA_OF_ASC_NODE = 75.0324
ARG_OF_PERICENTER = 83.5661
MEAN_ANOMALY   = 276.5803

EPHEMERIS_TYPE = 0
CLASSIFICATION_TYPE = U
NORAD_CAT_ID   = 66767
ELEMENT_SET_NO = 999
REV_AT_EPOCH   = 467
BSTAR          = .32481945E-3
MEAN_MOTION_DOT = .6615E-4
MEAN_MOTION_DDOT = 0

CCSDS_OMM_VERS = 2.0
CREATION_DATE  = 
ORIGINATOR     = 

OBJECT_NAME    = TRANSPORTER-15DG
OBJECT_ID      = 2025-276DG
CENTER_NAME    = EARTH
REF_FRAME      = TEME
TIME_SYSTEM    = UTC
MEAN_ELEMENT_THEORY = SGP/SGP4

EPOCH          = 2025-12-29T09:37:24.975264
MEAN_MOTION    = 15.18647218
ECCENTRICITY   = .00021388
INCLINATION    = 97.4353
RA_OF_ASC_NODE = 74.9020
ARG_OF_PERICENTER = 70.8215
MEAN_ANOMALY   = 289.3251

EPHEMERIS_TYPE = 0
CLASSIFICATION_TYPE = U
NORAD_CAT_ID   = 66768
ELEMENT_SET_NO = 999
REV_AT_EPOCH   = 465
BSTAR          = .801592E-3
MEAN_MOTION_DOT = .16562E-3
MEAN_MOTION_DDOT = 0

CCSDS_OMM_VERS = 2.0
CREATION_DATE  = 
ORIGINATOR     = 

OBJECT_NAME    = TRANSPORTER-15DH
OBJECT_ID      = 2025-276DH
CENTER_NAME    = EARTH
REF_FRAME      = TEME
TIME_SYSTEM    = UTC
MEAN_ELEMENT_THEORY = SGP/SGP4

EPOCH          = 2025-12-29T11:14:23.166816
MEAN_MOTION    = 15.18499411
ECCENTRICITY   = .00028162
INCLINATION    = 97.4416
RA_OF_ASC_NODE = 74.9879
ARG_OF_PERICENTER = 95.9769
MEAN_ANOMALY   = 264.1786

EPHEMERIS_TYPE = 0
CLASSIFICATION_TYPE = U
NORAD_CAT_ID   = 66769
ELEMENT_SET_NO = 999
REV_AT_EPOCH   = 466
BSTAR          = .44421889E-3
MEAN_MOTION_DOT = .91E-4
MEAN_MOTION_DDOT = 0

CCSDS_OMM_VERS = 2.0
CREATION_DATE  = 
ORIGINATOR     = 

OBJECT_NAME    = TRANSPORTER-15DJ
OBJECT_ID      = 2025-276DJ
CENTER_NAME    = EARTH
REF_FRAME      = TEME
TIME_SYSTEM    = UTC
MEAN_ELEMENT_THEORY = SGP/SGP4

EPOCH          = 2025-12-29T11:14:08.519424
MEAN_MOTION    = 15.18438506
ECCENTRICITY   = .00035275
INCLINATION    = 97.4449
RA_OF_ASC_NODE = 75.0004
ARG_OF_PERICENTER = 110.1013
MEAN_ANOMALY   = 250.0601

EPHEMERIS_TYPE = 0
CLASSIFICATION_TYPE = U
NORAD_CAT_ID   = 66770
ELEMENT_SET_NO = 999
REV_AT_EPOCH   = 466
BSTAR          = .48012584E-3
MEAN_MOTION_DOT = .9825E-4
MEAN_MOTION_DDOT = 0

CCSDS_OMM_VERS = 2.0
CREATION_DATE  = 
ORIGINATOR     = 

OBJECT_NAME    = TRANSPORTER-15DK
OBJECT_ID      = 2025-276DK
CENTER_NAME    = EARTH
REF_FRAME      = TEME
TIME_SYSTEM    = UTC
MEAN_ELEMENT_THEORY = SGP/SGP4

EPOCH          = 2025-12-29T00:08:41.259840
MEAN_MOTION    = 15.18562776
ECCENTRICITY   = .00031588
INCLINATION    = 97.4439
RA_OF_ASC_NODE = 74.5447
ARG_OF_PERICENTER = 102.7859
MEAN_ANOMALY   = 257.3728

EPHEMERIS_TYPE = 0
CLASSIFICATION_TYPE = U
NORAD_CAT_ID   = 66771
ELEMENT_SET_NO = 999
REV_AT_EPOCH   = 459
BSTAR          = .71728238E-3
MEAN_MOTION_DOT = .14774E-3
MEAN_MOTION_DDOT = 0

CCSDS_OMM_VERS = 2.0
CREATION_DATE  = 
ORIGINATOR     = 

OBJECT_NAME    = TRANSPORTER-15DL
OBJECT_ID      = 2025-276DL
CENTER_NAME    = EARTH
REF_FRAME      = TEME
TIME_SYSTEM    = UTC
MEAN_ELEMENT_THEORY = SGP/SGP4

EPOCH          = 2025-12-29T11:08:06.914688
MEAN_MOTION    = 15.18816056
ECCENTRICITY   = .00030158
INCLINATION    = 97.4432
RA_OF_ASC_NODE = 74.9992
ARG_OF_PERICENTER = 90.0471
MEAN_ANOMALY   = 270.1109

EPHEMERIS_TYPE = 0
CLASSIFICATION_TYPE = U
NORAD_CAT_ID   = 66772
ELEMENT_SET_NO = 999
REV_AT_EPOCH   = 466
BSTAR          = .84909596E-3
MEAN_MOTION_DOT = .17636E-3
MEAN_MOTION_DDOT = 0

